[{"OBJECT_NAME":"YUNHAI-1 03","OBJECT_ID":"2022-115A","EPOCH":"2026-03-09T22:42:18.502272","MEAN_MOTION":14.32645592,"ECCENTRICITY":0.00045037,"INCLINATION":98.5539,"RA_OF_ASC_NODE":68.3628,"ARG_OF_PERICENTER":355.0463,"MEAN_ANOMALY":5.0676,"EPHEMERIS_TYPE":0,"CLASSIFICATION_TYPE":"U","NORAD_CAT_ID":53877,"ELEMENT_SET_NO":999,"REV_AT_EPOCH":18130,"BSTAR":0.00016609215,"MEAN_MOTION_DOT":4.08e-6,"MEAN_MOTION_DDOT":0},{"OBJECT_NAME":"FENGYUN 1C DEB","OBJECT_ID":"1999-025CTZ","EPOCH":"2026-03-01T21:17:25.174752","MEAN_MOTION":14.0374179,"ECCENTRICITY":0.0144428,"INCLINATION":98.8962,"RA_OF_ASC_NODE":113.1074,"ARG_OF_PERICENTER":329.7198,"MEAN_ANOMALY":205.5071,"EPHEMERIS_TYPE":0,"CLASSIFICATION_TYPE":"U","NORAD_CAT_ID":32179,"ELEMENT_SET_NO":999,"REV_AT_EPOCH":66838,"BSTAR":0.00030227,"MEAN_MOTION_DOT":4.77e-6,"MEAN_MOTION_DDOT":0}]
